QIANFAN-65              
1 62795U 25016L   25223.93109274  .00000107  00000+0  14720-3 0  9996
2 62795  88.9818 115.7543 0013985 347.1214  12.9578 13.50962566 30667
QIANFAN-66              
1 62796U 25016M   25223.95978222  .00000126  00000+0  17673-3 0  9997
2 62796  88.9837 115.6974 0014933 341.9887  18.0733 13.50957678 30712
QIANFAN-67              
1 62797U 25016N   25223.96397080  .00000116  00000+0  16065-3 0  9999
2 62797  88.9828 115.7346 0015160 348.8213  11.2599 13.50966380 30680
QIANFAN-68              
1 62798U 25016P   25223.89397408  .00000122  00000+0  17082-3 0  9993
2 62798  88.9831 115.7855 0015726 346.9980  13.0763 13.50963802 30654
QIANFAN-69              
1 62799U 25016Q   25223.89806016  .00000111  00000+0  15291-3 0  9992
2 62799  88.9810 115.6780 0015926 347.9065  12.1701 13.50959390 30698
QIANFAN-70              
1 62800U 25016R   25223.91457306  .00000130  00000+0  18301-3 0  9998
2 62800  88.9831 115.7887 0015156 338.4750  21.5763 13.50963191 30656
QIANFAN-71              
1 62801U 25016S   25224.35493224  .00000127  00000+0  17746-3 0  9995
2 62801  88.9824 115.7305 0015920 350.1132   9.9703 13.50963082 30718
QIANFAN-72              
1 62802U 25016T   25223.90629986  .00000115  00000+0  15988-3 0  9995
2 62802  88.9815 115.7971 0019590 356.3976   3.7031 13.50958384 30646
